ORBCOMM FM05            
1 25117U 97084F   25342.98181374  .00002435  00000+0  70692-3 0  9991
2 25117  45.0135 248.3877 0003341   8.3938 351.6969 14.46686905465910
ORBCOMM FM06            
1 25118U 97084G   25343.19374012  .00002189  00000+0  63739-3 0  9999
2 25118  45.0125 246.8975 0002260   5.1928 153.8891 14.46847902466862
ORBCOMM FM07            
1 25119U 97084H   25343.10658137  .00002194  00000+0  63881-3 0  9998
2 25119  45.0122 248.0671 0004153   8.3268 351.7653 14.46858739466845
ORBCOMM FM03            
1 25158U 98007B   25343.13176593  .00001780  00000+0  66214-3 0  9994
2 25158 107.9638 135.0794 0046393 300.6581  58.9990 14.35009475449133
ORBCOMM FM04            
1 25159U 98007C   25343.15579814  .00001871  00000+0  69153-3 0  9996
2 25159 107.9629 138.4688 0042284 297.8595  61.8265 14.35254639449323
ORBCOMM FM17            
1 25413U 98046A   25342.90007988  .00001377  00000+0  52269-3 0  9993
2 25413  44.9923 152.8094 0002246  24.9420 335.1536 14.35521118428272
ORBCOMM FM18            
1 25414U 98046B   25343.18735583  .00002086  00000+0  71321-3 0  9992
2 25414  44.9929  64.0888 0003046 106.8026 253.3157 14.39136748429451
ORBCOMM FM19            
1 25415U 98046C   25343.17279972  .00001947  00000+0  67123-3 0  9997
2 25415  44.9940  66.4253 0001815 111.3578 331.1093 14.38955541429400
